start=new Date('2022-01-16T00:00:00.000Z').valueOf();
sats=[{"ELEMENT_SET_NO":"999","SITE":"AFETR","OBJECT_ID":"2020-088G","MEAN_MOTION":"15.06402834","CLASSIFICATION_TYPE":"U","PERIAPSIS":"544.565","INCLINATION":"53.0557","TLE_LINE2":"2 47128  53.0557 237.6096 0003812  54.1084 306.0259 15.06402834 63948","EPHEMERIS_TYPE":"0","COUNTRY_CODE":"US","RCS_SIZE":"LARGE","OBJECT_NAME":"STARLINK-1837","MEAN_ANOMALY":"306.0259","GP_ID":"193947541","BSTAR":"0.00002452700000","TLE_LINE1":"1 47128U 20088G   22015.82747582  .00000083  00000-0  24527-4 0  9998","RA_OF_ASC_NODE":"237.6096","LAUNCH_DATE":"2020-11-25","APOAPSIS":"549.845","MEAN_MOTION_DOT":"0.00000083","REV_AT_EPOCH":"6394","REF_FRAME":"TEME","DECAY_DATE":null,"CENTER_NAME":"EARTH","ARG_OF_PERICENTER":"54.1084","MEAN_ELEMENT_THEORY":"SGP4","TIME_SYSTEM":"UTC","PERIOD":"95.592","MEAN_MOTION_DDOT":"0.0000000000000","FILE":"3274074","EPOCH":"2022-01-15T19:51:33.910848","NORAD_CAT_ID":"47128","SEMIMAJOR_AXIS":"6925.340","ECCENTRICITY":"0.00038120","OBJECT_TYPE":"PAYLOAD"},{"TIME_SYSTEM":"UTC","PERIOD":"95.592","FILE":"3274074","MEAN_MOTION_DDOT":"0.0000000000000","EPOCH":"2022-01-15T22:08:13.662240","NORAD_CAT_ID":"47129","SEMIMAJOR_AXIS":"6925.323","ECCENTRICITY":"0.00022810","OBJECT_TYPE":"PAYLOAD","BSTAR":"0.00004938400000","TLE_LINE1":"1 47129U 20088H   22015.92238035  .00000454  00000-0  49384-4 0  9998","RA_OF_ASC_NODE":"247.1844","LAUNCH_DATE":"2020-11-25","APOAPSIS":"548.768","MEAN_MOTION_DOT":"0.00000454","REV_AT_EPOCH":"6382","DECAY_DATE":null,"REF_FRAME":"TEME","CENTER_NAME":"EARTH","ARG_OF_PERICENTER":"65.8459","MEAN_ELEMENT_THEORY":"SGP4","EPHEMERIS_TYPE":"0","COUNTRY_CODE":"US","RCS_SIZE":"LARGE","OBJECT_NAME":"STARLINK-1838","MEAN_ANOMALY":"294.2769","GP_ID":"193946794","ELEMENT_SET_NO":"999","SITE":"AFETR","OBJECT_ID":"2020-088H","MEAN_MOTION":"15.06408271","CLASSIFICATION_TYPE":"U","PERIAPSIS":"545.609","INCLINATION":"53.0543","TLE_LINE2":"2 47129  53.0543 247.1844 0002281  65.8459 294.2769 15.06408271 63827"},{"TIME_SYSTEM":"UTC","FILE":"3274074","MEAN_MOTION_DDOT":"0.0000000000000","PERIOD":"95.591","OBJECT_TYPE":"PAYLOAD","ECCENTRICITY":"0.00019030","NORAD_CAT_ID":"47130","SEMIMAJOR_AXIS":"6925.311","EPOCH":"2022-01-15T20:08:48.265728","LAUNCH_DATE":"2020-11-25","APOAPSIS":"548.494","MEAN_MOTION_DOT":"0.00001295","RA_OF_ASC_NODE":"267.5476","TLE_LINE1":"1 47130U 20088J   22015.83944752  .00001295  00000-0  10582-3 0  9991","BSTAR":"0.00010582000000","REV_AT_EPOCH":"6352","CENTER_NAME":"EARTH","DECAY_DATE":null,"REF_FRAME":"TEME","MEAN_ELEMENT_THEORY":"SGP4","ARG_OF_PERICENTER":"71.7270","COUNTRY_CODE":"US","EPHEMERIS_TYPE":"0","OBJECT_NAME":"STARLINK-1839","RCS_SIZE":"LARGE","MEAN_ANOMALY":"288.3926","GP_ID":"193947044","ELEMENT_SET_NO":"999","CLASSIFICATION_TYPE":"U","MEAN_MOTION":"15.06412328","SITE":"AFETR","OBJECT_ID":"2020-088J","PERIAPSIS":"545.858","TLE_LINE2":"2 47130  53.0543 267.5476 0001903  71.7270 288.3926 15.06412328 63527","INCLINATION":"53.0543"},{"EPOCH":"2022-01-15T18:16:36.930720","SEMIMAJOR_AXIS":"6683.143","NORAD_CAT_ID":"47131","ECCENTRICITY":"0.00032200","OBJECT_TYPE":"PAYLOAD","PERIOD":"90.621","MEAN_MOTION_DDOT":"0.0000000000000","FILE":"3274074","TIME_SYSTEM":"UTC","ARG_OF_PERICENTER":"23.6512","MEAN_ELEMENT_THEORY":"SGP4","DECAY_DATE":null,"REF_FRAME":"TEME","CENTER_NAME":"EARTH","REV_AT_EPOCH":"6470","BSTAR":"0.00199630000000","TLE_LINE1":"1 47131U 20088K   22015.76153855  .00625379  00000-0  19963-2 0  9996","RA_OF_ASC_NODE":"183.6121","MEAN_MOTION_DOT":"0.00625379","LAUNCH_DATE":"2020-11-25","APOAPSIS":"307.160","GP_ID":"193947296","MEAN_ANOMALY":"336.4660","RCS_SIZE":"LARGE","OBJECT_NAME":"STARLINK-1840","EPHEMERIS_TYPE":"0","COUNTRY_CODE":"US","INCLINATION":"53.0492","TLE_LINE2":"2 47131  53.0492 183.6121 0003220  23.6512 336.4660 15.89028228 64709","PERIAPSIS":"302.856","OBJECT_ID":"2020-088K","SITE":"AFETR","MEAN_MOTION":"15.89028228","CLASSIFICATION_TYPE":"U","ELEMENT_SET_NO":"999"},{"EPHEMERIS_TYPE":"0","COUNTRY_CODE":"US","OBJECT_NAME":"STARLINK-1843","RCS_SIZE":"LARGE","MEAN_ANOMALY":"289.8649","GP_ID":"193948041","ELEMENT_SET_NO":"999","MEAN_MOTION":"15.06402089","CLASSIFICATION_TYPE":"U","OBJECT_ID":"2020-088M","SITE":"AFETR","PERIAPSIS":"545.632","INCLINATION":"53.0464","TLE_LINE2":"2 47133  53.0464 247.2413 0002275  70.2585 289.8649 15.06402089 63817","TIME_SYSTEM":"UTC","PERIOD":"95.592","MEAN_MOTION_DDOT":"0.0000000000000","FILE":"3274074","ECCENTRICITY":"0.00022750","OBJECT_TYPE":"PAYLOAD","EPOCH":"2022-01-15T21:57:37.111104","SEMIMAJOR_AXIS":"6925.342","NORAD_CAT_ID":"47133","RA_OF_ASC_NODE":"247.2413","LAUNCH_DATE":"2020-11-25","MEAN_MOTION_DOT":"0.00002505","APOAPSIS":"548.783","BSTAR":"0.00018702000000","TLE_LINE1":"1 47133U 20088M   22015.91501286  .00002505  00000-0  18702-3 0  9991","REV_AT_EPOCH":"6381","DECAY_DATE":null,"REF_FRAME":"TEME","CENTER_NAME":"EARTH","ARG_OF_PERICENTER":"70.2585","MEAN_ELEMENT_THEORY":"SGP4"},{"NORAD_CAT_ID":"47134","SEMIMAJOR_AXIS":"6925.315","EPOCH":"2022-01-15T21:19:08.098752","OBJECT_TYPE":"PAYLOAD","ECCENTRICITY":"0.00017400","TIME_SYSTEM":"UTC","MEAN_MOTION_DDOT":"0.0000000000000","FILE":"3274074","PERIOD":"95.591","CENTER_NAME":"EARTH","REF_FRAME":"TEME","DECAY_DATE":null,"MEAN_ELEMENT_THEORY":"SGP4","ARG_OF_PERICENTER":"78.0231","TLE_LINE1":"1 47134U 20088N   22015.88828818  .00002811  00000-0  20746-3 0  9992","BSTAR":"0.00020746000000","LAUNCH_DATE":"2020-11-25","APOAPSIS":"548.385","MEAN_MOTION_DOT":"0.00002811","RA_OF_ASC_NODE":"257.3413","REV_AT_EPOCH":"6367","MEAN_ANOMALY":"282.0953","GP_ID":"193946295","COUNTRY_CODE":"US","EPHEMERIS_TYPE":"0","RCS_SIZE":"LARGE","OBJECT_NAME":"STARLINK-1844","PERIAPSIS":"545.975","TLE_LINE2":"2 47134  53.0532 257.3413 0001740  78.0231 282.0953 15.06410896 63678","INCLINATION":"53.0532","ELEMENT_SET_NO":"999","SITE":"AFETR","OBJECT_ID":"2020-088N","CLASSIFICATION_TYPE":"U","MEAN_MOTION":"15.06410896"},{"EPOCH":"2022-01-15T20:11:27.679776","NORAD_CAT_ID":"47135","SEMIMAJOR_AXIS":"6925.301","ECCENTRICITY":"0.00023030","OBJECT_TYPE":"PAYLOAD","TIME_SYSTEM":"UTC","PERIOD":"95.591","MEAN_MOTION_DDOT":"0.0000000000000","FILE":"3274074","DECAY_DATE":null,"REF_FRAME":"TEME","CENTER_NAME":"EARTH","ARG_OF_PERICENTER":"67.3499","MEAN_ELEMENT_THEORY":"SGP4","BSTAR":"0.00020690000000","TLE_LINE1":"1 47135U 20088P   22015.84129259  .00002803  00000-0  20690-3 0  9991","RA_OF_ASC_NODE":"247.5588","APOAPSIS":"548.761","LAUNCH_DATE":"2020-11-25","MEAN_MOTION_DOT":"0.00002803","REV_AT_EPOCH":"6380","MEAN_ANOMALY":"292.7734","GP_ID":"193946545","EPHEMERIS_TYPE":"0","COUNTRY_CODE":"US","RCS_SIZE":"LARGE","OBJECT_NAME":"STARLINK-1845","PERIAPSIS":"545.571","INCLINATION":"53.0558","TLE_LINE2":"2 47135  53.0558 247.5588 0002303  67.3499 292.7734 15.06415536 63800","ELEMENT_SET_NO":"999","SITE":"AFETR","OBJECT_ID":"2020-088P","MEAN_MOTION":"15.06415536","CLASSIFICATION_TYPE":"U"},{"GP_ID":"193947796","MEAN_ANOMALY":"292.3200","OBJECT_NAME":"STARLINK-1846","RCS_SIZE":"LARGE","COUNTRY_CODE":"US","EPHEMERIS_TYPE":"0","TLE_LINE2":"2 47136  53.0547 257.5526 0002507  67.8055 292.3200 15.06411687 63662","INCLINATION":"53.0547","PERIAPSIS":"545.442","CLASSIFICATION_TYPE":"U","MEAN_MOTION":"15.06411687","OBJECT_ID":"2020-088Q","SITE":"AFETR","ELEMENT_SET_NO":"999","OBJECT_TYPE":"PAYLOAD","ECCENTRICITY":"0.00025070","SEMIMAJOR_AXIS":"6925.313","NORAD_CAT_ID":"47136","EPOCH":"2022-01-15T20:10:08.393952","FILE":"3274074","MEAN_MOTION_DDOT":"0.0000000000000","PERIOD":"95.591","TIME_SYSTEM":"UTC","MEAN_ELEMENT_THEORY":"SGP4","ARG_OF_PERICENTER":"67.8055","CENTER_NAME":"EARTH","DECAY_DATE":null,"REF_FRAME":"TEME","REV_AT_EPOCH":"6366","MEAN_MOTION_DOT":"0.00003759","LAUNCH_DATE":"2020-11-25","APOAPSIS":"548.914","RA_OF_ASC_NODE":"257.5526","TLE_LINE1":"1 47136U 20088Q   22015.84037493  .00003759  00000-0  27107-3 0  9991","BSTAR":"0.00027107000000"},{"RCS_SIZE":"LARGE","OBJECT_NAME":"STARLINK-1849","EPHEMERIS_TYPE":"0","COUNTRY_CODE":"US","GP_ID":"193947542","MEAN_ANOMALY":"291.6681","OBJECT_ID":"2020-088R","SITE":"AFETR","MEAN_MOTION":"15.06399613","CLASSIFICATION_TYPE":"U","ELEMENT_SET_NO":"999","INCLINATION":"53.0538","TLE_LINE2":"2 47137  53.0538 247.3337 0002324  68.4556 291.6681 15.06399613 63816","PERIAPSIS":"545.605","PERIOD":"95.592","FILE":"3274074","MEAN_MOTION_DDOT":"0.0000000000000","TIME_SYSTEM":"UTC","EPOCH":"2022-01-15T21:20:28.372128","NORAD_CAT_ID":"47137","SEMIMAJOR_AXIS":"6925.350","ECCENTRICITY":"0.00023240","OBJECT_TYPE":"PAYLOAD","REV_AT_EPOCH":"6381","BSTAR":"0.00015540000000","TLE_LINE1":"1 47137U 20088R   22015.88921727  .00002034  00000-0  15540-3 0  9991","RA_OF_ASC_NODE":"247.3337","LAUNCH_DATE":"2020-11-25","MEAN_MOTION_DOT":"0.00002034","APOAPSIS":"548.824","ARG_OF_PERICENTER":"68.4556","MEAN_ELEMENT_THEORY":"SGP4","REF_FRAME":"TEME","DECAY_DATE":null,"CENTER_NAME":"EARTH"},{"ECCENTRICITY":"0.00023120","OBJECT_TYPE":"PAYLOAD","EPOCH":"2022-01-15T22:08:51.584928","NORAD_CAT_ID":"47138","SEMIMAJOR_AXIS":"6925.321","TIME_SYSTEM":"UTC","PERIOD":"95.592","FILE":"3274074","MEAN_MOTION_DDOT":"0.0000000000000","DECAY_DATE":null,"REF_FRAME":"TEME","CENTER_NAME":"EARTH","ARG_OF_PERICENTER":"68.3295","MEAN_ELEMENT_THEORY":"SGP4","RA_OF_ASC_NODE":"252.1769","LAUNCH_DATE":"2020-11-25","MEAN_MOTION_DOT":"0.00002506","APOAPSIS":"548.787","BSTAR":"0.00018707000000","TLE_LINE1":"1 47138U 20088S   22015.92281927  .00002506  00000-0  18707-3 0  9990","REV_AT_EPOCH":"6375","MEAN_ANOMALY":"291.7940","GP_ID":"193946795","EPHEMERIS_TYPE":"0","COUNTRY_CODE":"US","OBJECT_NAME":"STARLINK-1850","RCS_SIZE":"LARGE","PERIAPSIS":"545.585","INCLINATION":"53.0558","TLE_LINE2":"2 47138  53.0558 252.1769 0002312  68.3295 291.7940 15.06408950 63755","ELEMENT_SET_NO":"999","MEAN_MOTION":"15.06408950","CLASSIFICATION_TYPE":"U","OBJECT_ID":"2020-088S","SITE":"AFETR"}];
